ARIANE 40+ R/B          
1 23561U 95021B   26157.64240740  .00000275  00000+0  10138-3 0  9991
2 23561  98.4412 227.8693 0005806 227.9484 255.2585 14.39827571632043
SL-16 R/B               
1 23705U 95058B   26157.81510434 -.00000153  00000+0 -54011-4 0  9996
2 23705  71.0216 353.1362 0013343 334.4552  25.5910 14.15505363580467
SL-16 R/B               
1 24298U 96051B   26157.76250312  .00000132  00000+0  97896-4 0  9991
2 24298  70.7634 346.7124 0014570 352.8339   7.2570 14.12442526534229
ORBVIEW 2 (SEASTAR)     
1 24883U 97037A   26157.21657493  .00000294  00000+0  11833-3 0  9992
2 24883  98.8681 323.9323 0002840 139.2437 220.8961 14.35547902521179
SL-16 R/B               
1 25400U 98043G   26157.62806239  .00000060  00000+0  44087-4 0  9994
2 25400  98.8359 111.6968 0010825 113.9621 246.2693 14.26066813451667
SL-16 R/B               
1 25407U 98045B   26157.78230934  .00000110  00000+0  79799-4 0  9997
2 25407  71.0120 354.2122 0009537 253.9614 106.0459 14.16204379439710
ISS (ZARYA)             
1 25544U 98067A   26157.86947977  .00009276  00000+0  17237-3 0  9994
2 25544  51.6338 351.1688 0006977 142.0049 218.1433 15.49642340570157
CZ-4B R/B               
1 25732U 99025C   26157.86008348  .00000041  00000+0  40214-4 0  9991
2 25732  98.6488 199.9581 0038257  88.5039  84.6770 14.18281720400802
OKEAN-O                 
1 25860U 99039A   26157.66869947  .00000678  00000+0  95548-4 0  9992
2 25860  97.9319 216.5869 0001858  79.3700 280.7721 14.80454739447553
SL-16 R/B               
1 25861U 99039B   26157.63275003  .00000515  00000+0  71888-4 0  9995
2 25861  97.9842 216.5254 0014087 333.8280  26.2219 14.81834725450032
DELTA 2 R/B             
1 25876U 99041E   26157.69998599  .00000798  00000+0  16610-3 0  9996
2 25876  51.7661 305.6881 0500992 251.0146 103.5876 14.11997056375605
HELIOS 1B               
1 25977U 99064A   26157.62108027  .00001593  00000+0  18005-3 0  9999
2 25977  98.1622  62.4548 0002316 106.6511 253.4959 14.87978310698481
TERRA                   
1 25994U 99068A   26157.94973347  .00000406  00000+0  91562-4 0  9994
2 25994  97.9460 207.9015 0000879 241.8114 174.8380 14.61094985408117
